{
  "type": "FeatureCollection",
  "features": [
    {
      "type": "Feature",
      "properties": {
        "norad_id": 54259,
        "name": "EUTELSAT 10B",
        "group": "eutelsat",
        "lat": -0.043299271191442515,
        "lon": -47.02991994856028,
        "alt_km": 35789.37236309371,
        "timestamp": "2025-12-10T14:53:36.793793+00:00",
        "meta_object_name": "EUTELSAT 10B",
        "meta_object_id": "2022-157A",
        "meta_epoch": "2025-12-10T04:08:38.649120",
        "meta_mean_motion": 1.00269361,
        "meta_eccentricity": 7.806e-05,
        "meta_inclination": 0.0609,
        "meta_ra_of_asc_node": 99.0868,
        "meta_arg_of_pericenter": 70.119,
        "meta_mean_anomaly": 342.0822,
        "meta_ephemeris_type": 0,
        "meta_classification_type": "U",
        "meta_norad_cat_id": 54259,
        "meta_element_set_no": 999,
        "meta_rev_at_epoch": 1113,
        "meta_bstar": 0,
        "meta_mean_motion_dot": 7.1e-07,
        "meta_mean_motion_ddot": 0,
        "tle_line1": "1 54259U 22157A   25344.17266955  .00000071  00000+0  00000+0 0  9997",
        "tle_line2": "2 54259   0.0609  99.0868 0000780  70.1190 342.0822  1.00269361 11130"
      },
      "geometry": {
        "type": "Point",
        "coordinates": [
          -47.02991994856028,
          -0.043299271191442515
        ]
      }
    },
    {
      "type": "Feature",
      "properties": {
        "norad_id": 59346,
        "name": "EUTELSAT 36D",
        "group": "eutelsat",
        "lat": -0.00600411707481372,
        "lon": -21.159723163609303,
        "alt_km": 35784.73374378972,
        "timestamp": "2025-12-10T14:53:36.793803+00:00",
        "meta_object_name": "EUTELSAT 36D",
        "meta_object_id": "2024-059A",
        "meta_epoch": "2025-12-10T04:48:38.704608",
        "meta_mean_motion": 1.00268969,
        "meta_eccentricity": 4.973e-05,
        "meta_inclination": 0.0175,
        "meta_ra_of_asc_node": 352.6536,
        "meta_arg_of_pericenter": 342.7613,
        "meta_mean_anomaly": 211.7763,
        "meta_ephemeris_type": 0,
        "meta_classification_type": "U",
        "meta_norad_cat_id": 59346,
        "meta_element_set_no": 999,
        "meta_rev_at_epoch": 625,
        "meta_bstar": 0,
        "meta_mean_motion_dot": 0,
        "meta_mean_motion_ddot": 0,
        "tle_line1": "1 59346U 24059A   25344.20044797  .00000000  00000+0  00000+0 0  9996",
        "tle_line2": "2 59346   0.0175 352.6536 0000497 342.7613 211.7763  1.00268969  6259"
      },
      "geometry": {
        "type": "Point",
        "coordinates": [
          -21.159723163609303,
          -0.00600411707481372
        ]
      }
    }
  ]
}